{"type": "FeatureCollection", "features": [ {"type": "Feature", "properties": {"norad_id": 41836, "name": "HIMAWARI-9", "group": "weather", "lat": 0.016032111993682888, "lon": 84.15817780972225, "alt_km": 35790.35863449233, "timestamp": "2025-12-14T14:39:29.018920+00:00", "meta": {"OBJECT_NAME": "HIMAWARI-9", "OBJECT_ID": "2016-064A", "EPOCH": "2025-12-13T19:15:17.404128", "MEAN_MOTION": 1.00271431, "ECCENTRICITY": 9.938e-05, "INCLINATION": 0.0395, "RA_OF_ASC_NODE": 96.6597, "ARG_OF_PERICENTER": 180.6796, "MEAN_ANOMALY": 234.982, "EPHEMERIS_TYPE": 0, "CLASSIFICATION_TYPE": "U", "NORAD_CAT_ID": 41836, "ELEMENT_SET_NO": 999, "REV_AT_EPOCH": 3335, "BSTAR": 0, "MEAN_MOTION_DOT": -2.59e-06, "MEAN_MOTION_DDOT": 0}, "tle": {"line1": "1 41836U 16064A   25347.80228477 -.00000259  00000+0  00000+0 0  9993", "line2": "2 41836   0.0395  96.6597 0000993 180.6796 234.9820  1.00271431 33352"}}, "geometry": {"type": "Point", "coordinates": [84.15817780972225, 0.016032111993682888]}}, {"type": "Feature", "properties": {"norad_id": 41866, "name": "GOES 16", "group": "weather", "lat": 0.04791910344963857, "lon": -161.3210600235047, "alt_km": 35780.341027798575, "timestamp": "2025-12-14T14:39:29.018932+00:00", "meta": {"OBJECT_NAME": "GOES 16", "OBJECT_ID": "2016-071A", "EPOCH": "2025-12-13T21:30:44.234784", "MEAN_MOTION": 1.00271652, "ECCENTRICITY": 0.00031843, "INCLINATION": 0.066, "RA_OF_ASC_NODE": 104.5641, "ARG_OF_PERICENTER": 158.8092, "MEAN_ANOMALY": 37.4578, "EPHEMERIS_TYPE": 0, "CLASSIFICATION_TYPE": "U", "NORAD_CAT_ID": 41866, "ELEMENT_SET_NO": 999, "REV_AT_EPOCH": 3324, "BSTAR": 0, "MEAN_MOTION_DOT": -7.5e-07, "MEAN_MOTION_DDOT": 0}, "tle": {"line1": "1 41866U 16071A   25347.89634531 -.00000075  00000+0  00000+0 0  9991", "line2": "2 41866   0.0660 104.5641 0003184 158.8092  37.4578  1.00271652 33249"}}, "geometry": {"type": "Point", "coordinates": [-161.3210600235047, 0.04791910344963857]}}, {"type": "Feature", "properties": {"norad_id": 41882, "name": "FENGYUN 4A", "group": "weather", "lat": -0.4639665303360474, "lon": 67.19418794139136, "alt_km": 35805.96716455475, "timestamp": "2025-12-14T14:39:29.018944+00:00", "meta": {"OBJECT_NAME": "FENGYUN 4A", "OBJECT_ID": "2016-077A", "EPOCH": "2025-12-13T22:35:52.994976", "MEAN_MOTION": 1.00269201, "ECCENTRICITY": 0.00047489, "INCLINATION": 1.8525, "RA_OF_ASC_NODE": 82.3803, "ARG_OF_PERICENTER": 145.768, "MEAN_ANOMALY": 317.5109, "EPHEMERIS_TYPE": 0, "CLASSIFICATION_TYPE": "U", "NORAD_CAT_ID": 41882, "ELEMENT_SET_NO": 999, "REV_AT_EPOCH": 3307, "BSTAR": 0, "MEAN_MOTION_DOT": -3.41e-06, "MEAN_MOTION_DDOT": 0}, "tle": {"line1": "1 41882U 16077A   25347.94158559 -.00000341  00000+0  00000+0 0  9998", "line2": "2 41882   1.8525  82.3803 0004748 145.7680 317.5109  1.00269201 33074"}}, "geometry": {"type": "Point", "coordinates": [67.19418794139136, -0.4639665303360474]}}, {"type": "Feature", "properties": {"norad_id": 41884, "name": "CYGFM05", "group": "weather", "lat": 2.5475201588531964, "lon": 38.55937135488721, "alt_km": 428.63111972139995, "timestamp": "2025-12-14T14:39:29.018955+00:00", "meta": {"OBJECT_NAME": "CYGFM05", "OBJECT_ID": "2016-078A", "EPOCH": "2025-12-13T20:03:43.437024", "MEAN_MOTION": 15.47688471, "ECCENTRICITY": 0.00102483, "INCLINATION": 34.9605, "RA_OF_ASC_NODE": 39.97, "ARG_OF_PERICENTER": 193.4115, "MEAN_ANOMALY": 166.6335, "EPHEMERIS_TYPE": 0, "CLASSIFICATION_TYPE": "U", "NORAD_CAT_ID": 41884, "ELEMENT_SET_NO": 999, "REV_AT_EPOCH": 49993, "BSTAR": 0.00038872686, "MEAN_MOTION_DOT": 0.00020765, "MEAN_MOTION_DDOT": 0}, "tle": {"line1": "1 41884U 16078A   25347.83591941  .00020765  00000+0  38873-3 0  9999", "line2": "2 41884  34.9605  39.9700 0010248 193.4115 166.6335 15.47688471499936"}}, "geometry": {"type": "Point", "coordinates": [38.55937135488721, 2.5475201588531964]}}, {"type": "Feature", "properties": {"norad_id": 41885, "name": "CYGFM04", "group": "weather", "lat": -34.5675421363604, "lon": -89.58912360138554, "alt_km": 412.0808222559981, "timestamp": "2025-12-14T14:39:29.018967+00:00", "meta": {"OBJECT_NAME": "CYGFM04", "OBJECT_ID": "2016-078B", "EPOCH": "2025-12-13T11:15:40.578624", "MEAN_MOTION": 15.50402135, "ECCENTRICITY": 0.00095501, "INCLINATION": 34.9357, "RA_OF_ASC_NODE": 17.1215, "ARG_OF_PERICENTER": 217.126, "MEAN_ANOMALY": 142.8802, "EPHEMERIS_TYPE": 0, "CLASSIFICATION_TYPE": "U", "NORAD_CAT_ID": 41885, "ELEMENT_SET_NO": 999, "REV_AT_EPOCH": 50005, "BSTAR": 0.00056841232, "MEAN_MOTION_DOT": 0.00033488, "MEAN_MOTION_DDOT": 0}, "tle": {"line1": "1 41885U 16078B   25347.46921966  .00033488  00000+0  56841-3 0  9994", "line2": "2 41885  34.9357  17.1215 0009550 217.1260 142.8802 15.50402135500055"}}, "geometry": {"type": "Point", "coordinates": [-89.58912360138554, -34.5675421363604]}}, {"type": "Feature", "properties": {"norad_id": 41886, "name": "CYGFM02", "group": "weather", "lat": -33.61744417466426, "lon": -64.26617536304795, "alt_km": 409.28859140050554, "timestamp": "2025-12-14T14:39:29.018978+00:00", "meta": {"OBJECT_NAME": "CYGFM02", "OBJECT_ID": "2016-078C", "EPOCH": "2025-12-13T18:54:34.735392", "MEAN_MOTION": 15.51795554, "ECCENTRICITY": 0.00112912, "INCLINATION": 34.9446, "RA_OF_ASC_NODE": 13.3427, "ARG_OF_PERICENTER": 219.3657, "MEAN_ANOMALY": 140.6246, "EPHEMERIS_TYPE": 0, "CLASSIFICATION_TYPE": "U", "NORAD_CAT_ID": 41886, "ELEMENT_SET_NO": 999, "REV_AT_EPOCH": 50023, "BSTAR": 0.00041124535, "MEAN_MOTION_DOT": 0.00025449, "MEAN_MOTION_DDOT": 0}, "tle": {"line1": "1 41886U 16078C   25347.78790203  .00025449  00000+0  41125-3 0  9995", "line2": "2 41886  34.9446  13.3427 0011291 219.3657 140.6246 15.51795554500236"}}, "geometry": {"type": "Point", "coordinates": [-64.26617536304795, -33.61744417466426]}}, {"type": "Feature", "properties": {"norad_id": 41887, "name": "CYGFM01", "group": "weather", "lat": 27.021720320197677, "lon": 84.16623741627306, "alt_km": 421.6058391557199, "timestamp": "2025-12-14T14:39:29.018989+00:00", "meta": {"OBJECT_NAME": "CYGFM01", "OBJECT_ID": "2016-078D", "EPOCH": "2025-12-13T13:40:19.792992", "MEAN_MOTION": 15.48257006, "ECCENTRICITY": 0.0009752, "INCLINATION": 34.9435, "RA_OF_ASC_NODE": 44.0536, "ARG_OF_PERICENTER": 183.0783, "MEAN_ANOMALY": 176.988, "EPHEMERIS_TYPE": 0, "CLASSIFICATION_TYPE": "U", "NORAD_CAT_ID": 41887, "ELEMENT_SET_NO": 999, "REV_AT_EPOCH": 49983, "BSTAR": 0.00040822074, "MEAN_MOTION_DOT": 0.00022248, "MEAN_MOTION_DDOT": 0}, "tle": {"line1": "1 41887U 16078D   25347.56967353  .00022248  00000+0  40822-3 0  9991", "line2": "2 41887  34.9435  44.0536 0009752 183.0783 176.9880 15.48257006499833"}}, "geometry": {"type": "Point", "coordinates": [84.16623741627306, 27.021720320197677]}}, {"type": "Feature", "properties": {"norad_id": 41888, "name": "CYGFM08", "group": "weather", "lat": 32.75426605344992, "lon": 133.10679487039647, "alt_km": 414.3779861277535, "timestamp": "2025-12-14T14:39:29.019000+00:00", "meta": {"OBJECT_NAME": "CYGFM08", "OBJECT_ID": "2016-078E", "EPOCH": "2025-12-13T19:38:01.316256", "MEAN_MOTION": 15.49476293, "ECCENTRICITY": 0.00117583, "INCLINATION": 34.9469, "RA_OF_ASC_NODE": 25.4078, "ARG_OF_PERICENTER": 208.6682, "MEAN_ANOMALY": 151.3395, "EPHEMERIS_TYPE": 0, "CLASSIFICATION_TYPE": "U", "NORAD_CAT_ID": 41888, "ELEMENT_SET_NO": 999, "REV_AT_EPOCH": 50010, "BSTAR": 0.00042352292, "MEAN_MOTION_DOT": 0.00024126, "MEAN_MOTION_DDOT": 0}, "tle": {"line1": "1 41888U 16078E   25347.81807079  .00024126  00000+0  42352-3 0  9995", "line2": "2 41888  34.9469  25.4078 0011758 208.6682 151.3395 15.49476293500109"}}, "geometry": {"type": "Point", "coordinates": [133.10679487039647, 32.75426605344992]}}, {"type": "Feature", "properties": {"norad_id": 41890, "name": "CYGFM07", "group": "weather", "lat": 34.21878268782714, "lon": 112.32791197338813, "alt_km": 414.5472984459848, "timestamp": "2025-12-14T14:39:29.019011+00:00", "meta": {"OBJECT_NAME": "CYGFM07", "OBJECT_ID": "2016-078G", "EPOCH": "2025-12-13T10:24:08.339904", "MEAN_MOTION": 15.50044004, "ECCENTRICITY": 0.0009911, "INCLINATION": 34.9485, "RA_OF_ASC_NODE": 16.9056, "ARG_OF_PERICENTER": 221.9296, "MEAN_ANOMALY": 138.0668, "EPHEMERIS_TYPE": 0, "CLASSIFICATION_TYPE": "U", "NORAD_CAT_ID": 41890, "ELEMENT_SET_NO": 999, "REV_AT_EPOCH": 50006, "BSTAR": 0.00055257026, "MEAN_MOTION_DOT": 0.00032139, "MEAN_MOTION_DDOT": 0}, "tle": {"line1": "1 41890U 16078G   25347.43342986  .00032139  00000+0  55257-3 0  9998", "line2": "2 41890  34.9485  16.9056 0009911 221.9296 138.0668 15.50044004500061"}}, "geometry": {"type": "Point", "coordinates": [112.32791197338813, 34.21878268782714]}}, {"type": "Feature", "properties": {"norad_id": 41891, "name": "CYGFM03", "group": "weather", "lat": -31.26602771005252, "lon": -49.30614405523331, "alt_km": 416.92731874470246, "timestamp": "2025-12-14T14:39:29.019021+00:00", "meta": {"OBJECT_NAME": "CYGFM03", "OBJECT_ID": "2016-078H", "EPOCH": "2025-12-13T18:50:32.330688", "MEAN_MOTION": 15.4995643, "ECCENTRICITY": 0.00094062, "INCLINATION": 34.9441, "RA_OF_ASC_NODE": 16.5185, "ARG_OF_PERICENTER": 212.6304, "MEAN_ANOMALY": 147.3837, "EPHEMERIS_TYPE": 0, "CLASSIFICATION_TYPE": "U", "NORAD_CAT_ID": 41891, "ELEMENT_SET_NO": 999, "REV_AT_EPOCH": 50009, "BSTAR": 0.00042258031, "MEAN_MOTION_DOT": 0.00024462, "MEAN_MOTION_DDOT": 0}, "tle": {"line1": "1 41891U 16078H   25347.78509642  .00024462  00000+0  42258-3 0  9998", "line2": "2 41891  34.9441  16.5185 0009406 212.6304 147.3837 15.49956430500096"}}, "geometry": {"type": "Point", "coordinates": [-49.30614405523331, -31.26602771005252]}}]}